{"type": "FeatureCollection", "features": [ {"type": "Feature", "properties": {"norad_id": 32129, "name": "FENGYUN 1C DEB", "group": "fengyun-1c-debris", "lat": -69.72844551642736, "lon": -104.90425664386329, "alt_km": 848.4277008986865, "timestamp": "2025-12-08T10:52:03.233178+00:00", "meta": {"OBJECT_NAME": "FENGYUN 1C DEB", "OBJECT_ID": "1999-025CRX", "EPOCH": "2025-12-04T06:47:11.103360", "MEAN_MOTION": 14.28351458, "ECCENTRICITY": 0.0068221, "INCLINATION": 99.06, "RA_OF_ASC_NODE": 96.364, "ARG_OF_PERICENTER": 58.9754, "MEAN_ANOMALY": 1.6192, "EPHEMERIS_TYPE": 0, "CLASSIFICATION_TYPE": "U", "NORAD_CAT_ID": 32129, "ELEMENT_SET_NO": 999, "REV_AT_EPOCH": 94106, "BSTAR": 0.00548, "MEAN_MOTION_DOT": 0.00014014, "MEAN_MOTION_DDOT": 0}, "tle": {"line1": "1 32129U 99025CRX 25338.28276740  .00014014  00000+0  54800-2 0  9997", "line2": "2 32129  99.0600  96.3640 0068221  58.9754   1.6192 14.28351458941068"}}, "geometry": {"type": "Point", "coordinates": [-104.90425664386329, -69.72844551642736]}}, {"type": "Feature", "properties": {"norad_id": 32130, "name": "FENGYUN 1C DEB", "group": "fengyun-1c-debris", "lat": -21.909956883237392, "lon": 152.4258549475777, "alt_km": 713.0728290743991, "timestamp": "2025-12-08T10:52:03.233188+00:00", "meta": {"OBJECT_NAME": "FENGYUN 1C DEB", "OBJECT_ID": "1999-025CRY", "EPOCH": "2025-12-07T04:54:01.584000", "MEAN_MOTION": 14.37525064, "ECCENTRICITY": 0.00827201, "INCLINATION": 98.9035, "RA_OF_ASC_NODE": 147.5186, "ARG_OF_PERICENTER": 346.5702, "MEAN_ANOMALY": 13.3282, "EPHEMERIS_TYPE": 0, "CLASSIFICATION_TYPE": "U", "NORAD_CAT_ID": 32130, "ELEMENT_SET_NO": 999, "REV_AT_EPOCH": 96155, "BSTAR": 0.00070700454, "MEAN_MOTION_DOT": 2.155e-05, "MEAN_MOTION_DDOT": 0}, "tle": {"line1": "1 32130U 99025CRY 25341.20418500  .00002155  00000+0  70700-3 0  9998", "line2": "2 32130  98.9035 147.5186 0082720 346.5702  13.3282 14.37525064961555"}}, "geometry": {"type": "Point", "coordinates": [152.4258549475777, -21.909956883237392]}}, {"type": "Feature", "properties": {"norad_id": 32133, "name": "FENGYUN 1C DEB", "group": "fengyun-1c-debris", "lat": -65.68289521098451, "lon": 3.0354088502642593, "alt_km": 865.3111454881109, "timestamp": "2025-12-08T10:52:03.233214+00:00", "meta": {"OBJECT_NAME": "FENGYUN 1C DEB", "OBJECT_ID": "1999-025CSB", "EPOCH": "2025-12-07T11:28:39.484128", "MEAN_MOTION": 14.18065093, "ECCENTRICITY": 0.00363357, "INCLINATION": 98.431, "RA_OF_ASC_NODE": 342.9491, "ARG_OF_PERICENTER": 115.6515, "MEAN_ANOMALY": 244.8421, "EPHEMERIS_TYPE": 0, "CLASSIFICATION_TYPE": "U", "NORAD_CAT_ID": 32133, "ELEMENT_SET_NO": 999, "REV_AT_EPOCH": 94900, "BSTAR": 0.00031882408, "MEAN_MOTION_DOT": 6.17e-06, "MEAN_MOTION_DDOT": 0}, "tle": {"line1": "1 32133U 99025CSB 25341.47823477  .00000617  00000+0  31882-3 0  9992", "line2": "2 32133  98.4310 342.9491 0036335 115.6515 244.8421 14.18065093949009"}}, "geometry": {"type": "Point", "coordinates": [3.0354088502642593, -65.68289521098451]}}, {"type": "Feature", "properties": {"norad_id": 32134, "name": "FENGYUN 1C DEB", "group": "fengyun-1c-debris", "lat": 81.36265802799474, "lon": -109.66011600318454, "alt_km": 998.3393126552255, "timestamp": "2025-12-08T10:52:03.233226+00:00", "meta": {"OBJECT_NAME": "FENGYUN 1C DEB", "OBJECT_ID": "1999-025CSC", "EPOCH": "2025-12-07T11:31:51.559104", "MEAN_MOTION": 14.2152476, "ECCENTRICITY": 0.02590088, "INCLINATION": 98.594, "RA_OF_ASC_NODE": 344.8046, "ARG_OF_PERICENTER": 278.9279, "MEAN_ANOMALY": 238.3835, "EPHEMERIS_TYPE": 0, "CLASSIFICATION_TYPE": "U", "NORAD_CAT_ID": 32134, "ELEMENT_SET_NO": 999, "REV_AT_EPOCH": 95072, "BSTAR": 0.001182529, "MEAN_MOTION_DOT": 3.592e-05, "MEAN_MOTION_DDOT": 0}, "tle": {"line1": "1 32134U 99025CSC 25341.48045786  .00003592  00000+0  11825-2 0  9992", "line2": "2 32134  98.5940 344.8046 0259008 278.9279 238.3835 14.21524760950724"}}, "geometry": {"type": "Point", "coordinates": [-109.66011600318454, 81.36265802799474]}}, {"type": "Feature", "properties": {"norad_id": 32136, "name": "FENGYUN 1C DEB", "group": "fengyun-1c-debris", "lat": 41.83862240264381, "lon": -26.73339028480764, "alt_km": 800.1599217112771, "timestamp": "2025-12-08T10:52:03.233237+00:00", "meta": {"OBJECT_NAME": "FENGYUN 1C DEB", "OBJECT_ID": "1999-025CSE", "EPOCH": "2025-11-08T10:52:11.631360", "MEAN_MOTION": 14.37825296, "ECCENTRICITY": 0.00661033, "INCLINATION": 98.2658, "RA_OF_ASC_NODE": 311.8847, "ARG_OF_PERICENTER": 277.2954, "MEAN_ANOMALY": 82.0724, "EPHEMERIS_TYPE": 0, "CLASSIFICATION_TYPE": "U", "NORAD_CAT_ID": 32136, "ELEMENT_SET_NO": 999, "REV_AT_EPOCH": 64597, "BSTAR": 0.00089904729, "MEAN_MOTION_DOT": 2.737e-05, "MEAN_MOTION_DDOT": 0}, "tle": {"line1": "1 32136U 99025CSE 25312.45291240  .00002737  00000+0  89905-3 0  9992", "line2": "2 32136  98.2658 311.8847 0066103 277.2954  82.0724 14.37825296645970"}}, "geometry": {"type": "Point", "coordinates": [-26.73339028480764, 41.83862240264381]}}, {"type": "Feature", "properties": {"norad_id": 32137, "name": "FENGYUN 1C DEB", "group": "fengyun-1c-debris", "lat": 27.08290588421119, "lon": 105.11099295470822, "alt_km": 500.7632294153482, "timestamp": "2025-12-08T10:52:03.233248+00:00", "meta": {"OBJECT_NAME": "FENGYUN 1C DEB", "OBJECT_ID": "1999-025CSF", "EPOCH": "2025-12-06T14:58:18.861024", "MEAN_MOTION": 14.81103576, "ECCENTRICITY": 0.01882049, "INCLINATION": 98.4431, "RA_OF_ASC_NODE": 107.5404, "ARG_OF_PERICENTER": 53.6795, "MEAN_ANOMALY": 308.1629, "EPHEMERIS_TYPE": 0, "CLASSIFICATION_TYPE": "U", "NORAD_CAT_ID": 32137, "ELEMENT_SET_NO": 999, "REV_AT_EPOCH": 66640, "BSTAR": 0.0012837364, "MEAN_MOTION_DOT": 0.00013499, "MEAN_MOTION_DDOT": 0}, "tle": {"line1": "1 32137U 99025CSF 25340.62382941  .00013499  00000+0  12837-2 0  9998", "line2": "2 32137  98.4431 107.5404 0188204  53.6795 308.1629 14.81103576666403"}}, "geometry": {"type": "Point", "coordinates": [105.11099295470822, 27.08290588421119]}}, {"type": "Feature", "properties": {"norad_id": 32141, "name": "FENGYUN 1C DEB", "group": "fengyun-1c-debris", "lat": 52.584853446760874, "lon": 176.62200162939948, "alt_km": 879.7570919073105, "timestamp": "2025-12-08T10:52:03.233259+00:00", "meta": {"OBJECT_NAME": "FENGYUN 1C DEB", "OBJECT_ID": "1999-025CSK", "EPOCH": "2025-11-20T23:04:46.058016", "MEAN_MOTION": 14.03501767, "ECCENTRICITY": 0.00731678, "INCLINATION": 98.7436, "RA_OF_ASC_NODE": 328.1999, "ARG_OF_PERICENTER": 269.2169, "MEAN_ANOMALY": 90.0615, "EPHEMERIS_TYPE": 0, "CLASSIFICATION_TYPE": "U", "NORAD_CAT_ID": 32141, "ELEMENT_SET_NO": 999, "REV_AT_EPOCH": 94638, "BSTAR": 0.00056632309, "MEAN_MOTION_DOT": 8.66e-06, "MEAN_MOTION_DDOT": 0}, "tle": {"line1": "1 32141U 99025CSK 25324.96164419  .00000866  00000+0  56632-3 0  9996", "line2": "2 32141  98.7436 328.1999 0073167 269.2169  90.0615 14.03501767946385"}}, "geometry": {"type": "Point", "coordinates": [176.62200162939948, 52.584853446760874]}}, {"type": "Feature", "properties": {"norad_id": 32143, "name": "FENGYUN 1C DEB", "group": "fengyun-1c-debris", "lat": -49.184825578183975, "lon": 129.43533833331762, "alt_km": 862.8535023682025, "timestamp": "2025-12-08T10:52:03.233270+00:00", "meta": {"OBJECT_NAME": "FENGYUN 1C DEB", "OBJECT_ID": "1999-025CSM", "EPOCH": "2025-12-03T04:28:30.343584", "MEAN_MOTION": 14.17959367, "ECCENTRICITY": 0.01041232, "INCLINATION": 98.5963, "RA_OF_ASC_NODE": 314.4234, "ARG_OF_PERICENTER": 136.0042, "MEAN_ANOMALY": 224.9481, "EPHEMERIS_TYPE": 0, "CLASSIFICATION_TYPE": "U", "NORAD_CAT_ID": 32143, "ELEMENT_SET_NO": 999, "REV_AT_EPOCH": 95798, "BSTAR": 0.00020859227, "MEAN_MOTION_DOT": 4.09e-06, "MEAN_MOTION_DDOT": 0}, "tle": {"line1": "1 32143U 99025CSM 25337.18646231  .00000409  00000+0  20859-3 0  9998", "line2": "2 32143  98.5963 314.4234 0104123 136.0042 224.9481 14.17959367957983"}}, "geometry": {"type": "Point", "coordinates": [129.43533833331762, -49.184825578183975]}}, {"type": "Feature", "properties": {"norad_id": 32150, "name": "FENGYUN 1C DEB", "group": "fengyun-1c-debris", "lat": 54.55917625753926, "lon": -162.0185376210367, "alt_km": 597.1216774420845, "timestamp": "2025-12-08T10:52:03.233280+00:00", "meta": {"OBJECT_NAME": "FENGYUN 1C DEB", "OBJECT_ID": "1999-025CSU", "EPOCH": "2025-12-05T08:19:59.789856", "MEAN_MOTION": 14.60648055, "ECCENTRICITY": 0.01718442, "INCLINATION": 99.1916, "RA_OF_ASC_NODE": 1.3864, "ARG_OF_PERICENTER": 89.9667, "MEAN_ANOMALY": 272.1222, "EPHEMERIS_TYPE": 0, "CLASSIFICATION_TYPE": "U", "NORAD_CAT_ID": 32150, "ELEMENT_SET_NO": 999, "REV_AT_EPOCH": 97598, "BSTAR": 0.00021099285, "MEAN_MOTION_DOT": 1.198e-05, "MEAN_MOTION_DDOT": 0}, "tle": {"line1": "1 32150U 99025CSU 25339.34721979  .00001198  00000+0  21099-3 0  9992", "line2": "2 32150  99.1916   1.3864 0171844  89.9667 272.1222 14.60648055975985"}}, "geometry": {"type": "Point", "coordinates": [-162.0185376210367, 54.55917625753926]}}, {"type": "Feature", "properties": {"norad_id": 32152, "name": "FENGYUN 1C DEB", "group": "fengyun-1c-debris", "lat": 14.438788574326132, "lon": 141.09863288592746, "alt_km": 741.710115255828, "timestamp": "2025-12-08T10:52:03.233290+00:00", "meta": {"OBJECT_NAME": "FENGYUN 1C DEB", "OBJECT_ID": "1999-025CSW", "EPOCH": "2025-12-04T06:13:51.350304", "MEAN_MOTION": 14.56482444, "ECCENTRICITY": 0.0055324, "INCLINATION": 98.7599, "RA_OF_ASC_NODE": 138.9704, "ARG_OF_PERICENTER": 227.1779, "MEAN_ANOMALY": 132.4761, "EPHEMERIS_TYPE": 0, "CLASSIFICATION_TYPE": "U", "NORAD_CAT_ID": 32152, "ELEMENT_SET_NO": 999, "REV_AT_EPOCH": 62489, "BSTAR": 0.0046274, "MEAN_MOTION_DOT": 0.00021013, "MEAN_MOTION_DDOT": 0}, "tle": {"line1": "1 32152U 99025CSW 25338.25962211  .00021013  00000+0  46274-2 0  9998", "line2": "2 32152  98.7599 138.9704 0055324 227.1779 132.4761 14.56482444624893"}}, "geometry": {"type": "Point", "coordinates": [141.09863288592746, 14.438788574326132]}}]}